{
  "type": "FeatureCollection",
  "features": [
    {
      "type": "Feature",
      "properties": {
        "norad_id": 66376,
        "name": "SHIYAN-32 01",
        "group": "last-30-days",
        "lat": 48.03691620606199,
        "lon": -75.16104316859945,
        "alt_km": 428.40100192960017,
        "timestamp": "2025-12-02T06:27:51.800168+00:00",
        "meta_object_name": "SHIYAN-32 01",
        "meta_object_id": "2025-255A",
        "meta_epoch": "2025-12-01T19:16:53.554368",
        "meta_mean_motion": 15.42196322,
        "meta_eccentricity": 0.0013339,
        "meta_inclination": 52.9964,
        "meta_ra_of_asc_node": 230.0494,
        "meta_arg_of_pericenter": 8.3763,
        "meta_mean_anomaly": 351.7461,
        "meta_ephemeris_type": 0,
        "meta_classification_type": "U",
        "meta_norad_cat_id": 66376,
        "meta_element_set_no": 999,
        "meta_rev_at_epoch": 366,
        "meta_bstar": 0.00047189,
        "meta_mean_motion_dot": 0.0002026,
        "meta_mean_motion_ddot": 0,
        "tle_line1": "1 66376U 25255A   25335.80339762  .00020260  00000+0  47189-3 0  9994",
        "tle_line2": "2 66376  52.9964 230.0494 0013339   8.3763 351.7461 15.42196322  3660"
      },
      "geometry": {
        "type": "Point",
        "coordinates": [
          -75.16104316859945,
          48.03691620606199
        ]
      }
    },
    {
      "type": "Feature",
      "properties": {
        "norad_id": 66377,
        "name": "CZ-11 DEB",
        "group": "last-30-days",
        "lat": 37.89044915936762,
        "lon": 11.776098227436938,
        "alt_km": 436.1576695985159,
        "timestamp": "2025-12-02T06:27:51.800181+00:00",
        "meta_object_name": "CZ-11 DEB",
        "meta_object_id": "2025-255B",
        "meta_epoch": "2025-12-01T19:01:37.011936",
        "meta_mean_motion": 15.43379892,
        "meta_eccentricity": 0.0013895,
        "meta_inclination": 52.9964,
        "meta_ra_of_asc_node": 229.9824,
        "meta_arg_of_pericenter": 5.8586,
        "meta_mean_anomaly": 354.2578,
        "meta_ephemeris_type": 0,
        "meta_classification_type": "U",
        "meta_norad_cat_id": 66377,
        "meta_element_set_no": 999,
        "meta_rev_at_epoch": 352,
        "meta_bstar": 0.00085435,
        "meta_mean_motion_dot": 0.0003864,
        "meta_mean_motion_ddot": 0,
        "tle_line1": "1 66377U 25255B   25335.79278949  .00038640  00000+0  85435-3 0  9999",
        "tle_line2": "2 66377  52.9964 229.9824 0013895   5.8586 354.2578 15.43379892  3525"
      },
      "geometry": {
        "type": "Point",
        "coordinates": [
          11.776098227436938,
          37.89044915936762
        ]
      }
    },
    {
      "type": "Feature",
      "properties": {
        "norad_id": 66378,
        "name": "SHIYAN-32 02",
        "group": "last-30-days",
        "lat": 19.08127466623307,
        "lon": 32.54354553923247,
        "alt_km": 439.8635410671759,
        "timestamp": "2025-12-02T06:27:51.800192+00:00",
        "meta_object_name": "SHIYAN-32 02",
        "meta_object_id": "2025-255C",
        "meta_epoch": "2025-12-01T18:55:04.196064",
        "meta_mean_motion": 15.43870454,
        "meta_eccentricity": 0.0012673,
        "meta_inclination": 52.9977,
        "meta_ra_of_asc_node": 229.9564,
        "meta_arg_of_pericenter": 7.3781,
        "meta_mean_anomaly": 352.7408,
        "meta_ephemeris_type": 0,
        "meta_classification_type": "U",
        "meta_norad_cat_id": 66378,
        "meta_element_set_no": 999,
        "meta_rev_at_epoch": 352,
        "meta_bstar": 0.0011673,
        "meta_mean_motion_dot": 0.00053916,
        "meta_mean_motion_ddot": 0,
        "tle_line1": "1 66378U 25255C   25335.78824301  .00053916  00000+0  11673-2 0  9993",
        "tle_line2": "2 66378  52.9977 229.9564 0012673   7.3781 352.7408 15.43870454  3523"
      },
      "geometry": {
        "type": "Point",
        "coordinates": [
          32.54354553923247,
          19.08127466623307
        ]
      }
    },
    {
      "type": "Feature",
      "properties": {
        "norad_id": 66379,
        "name": "SHIYAN-32 03",
        "group": "last-30-days",
        "lat": 52.077676054744444,
        "lon": -27.68757995967695,
        "alt_km": 431.13574762007556,
        "timestamp": "2025-12-02T06:27:51.800202+00:00",
        "meta_object_name": "SHIYAN-32 03",
        "meta_object_id": "2025-255D",
        "meta_epoch": "2025-12-01T20:42:32.296320",
        "meta_mean_motion": 15.42556992,
        "meta_eccentricity": 0.0015352,
        "meta_inclination": 52.9971,
        "meta_ra_of_asc_node": 229.7092,
        "meta_arg_of_pericenter": 9.4603,
        "meta_mean_anomaly": 350.6687,
        "meta_ephemeris_type": 0,
        "meta_classification_type": "U",
        "meta_norad_cat_id": 66379,
        "meta_element_set_no": 999,
        "meta_rev_at_epoch": 355,
        "meta_bstar": 0.00047274,
        "meta_mean_motion_dot": 0.00020569,
        "meta_mean_motion_ddot": 0,
        "tle_line1": "1 66379U 25255D   25335.86287380  .00020569  00000+0  47274-3 0  9998",
        "tle_line2": "2 66379  52.9971 229.7092 0015352   9.4603 350.6687 15.42556992  3551"
      },
      "geometry": {
        "type": "Point",
        "coordinates": [
          -27.68757995967695,
          52.077676054744444
        ]
      }
    },
    {
      "type": "Feature",
      "properties": {
        "norad_id": 66380,
        "name": "STARLINK-35139",
        "group": "last-30-days",
        "lat": 41.27068853044819,
        "lon": -4.86538876416964,
        "alt_km": 441.0157698353778,
        "timestamp": "2025-12-02T06:27:51.800213+00:00",
        "meta_object_name": "STARLINK-35139",
        "meta_object_id": "2025-257A",
        "meta_epoch": "2025-12-01T20:00:01.999008",
        "meta_mean_motion": 15.41806575,
        "meta_eccentricity": 0.0001252,
        "meta_inclination": 53.1595,
        "meta_ra_of_asc_node": 316.0475,
        "meta_arg_of_pericenter": 110.3393,
        "meta_mean_anomaly": 45.5396,
        "meta_ephemeris_type": 0,
        "meta_classification_type": "U",
        "meta_norad_cat_id": 66380,
        "meta_element_set_no": 999,
        "meta_rev_at_epoch": 468,
        "meta_bstar": -0.056799,
        "meta_mean_motion_dot": -0.021946,
        "meta_mean_motion_ddot": 0,
        "tle_line1": "1 66380U 25257A   25335.83335647 -.02194600  00000+0 -56799-1 0  9991",
        "tle_line2": "2 66380  53.1595 316.0475 0001252 110.3393  45.5396 15.41806575  4681"
      },
      "geometry": {
        "type": "Point",
        "coordinates": [
          -4.86538876416964,
          41.27068853044819
        ]
      }
    },
    {
      "type": "Feature",
      "properties": {
        "norad_id": 66381,
        "name": "STARLINK-35158",
        "group": "last-30-days",
        "lat": 42.35786306325212,
        "lon": -2.889471036707131,
        "alt_km": 440.7799101208766,
        "timestamp": "2025-12-02T06:27:51.800225+00:00",
        "meta_object_name": "STARLINK-35158",
        "meta_object_id": "2025-257B",
        "meta_epoch": "2025-12-01T20:00:01.999008",
        "meta_mean_motion": 15.41788212,
        "meta_eccentricity": 0.0001411,
        "meta_inclination": 53.1592,
        "meta_ra_of_asc_node": 316.0438,
        "meta_arg_of_pericenter": 109.6717,
        "meta_mean_anomaly": 48.0597,
        "meta_ephemeris_type": 0,
        "meta_classification_type": "U",
        "meta_norad_cat_id": 66381,
        "meta_element_set_no": 999,
        "meta_rev_at_epoch": 474,
        "meta_bstar": -0.056567,
        "meta_mean_motion_dot": -0.02147155,
        "meta_mean_motion_ddot": 0,
        "tle_line1": "1 66381U 25257B   25335.83335647 -.02147155  00000+0 -56567-1 0  9998",
        "tle_line2": "2 66381  53.1592 316.0438 0001411 109.6717  48.0597 15.41788212  4741"
      },
      "geometry": {
        "type": "Point",
        "coordinates": [
          -2.889471036707131,
          42.35786306325212
        ]
      }
    },
    {
      "type": "Feature",
      "properties": {
        "norad_id": 66382,
        "name": "STARLINK-35639",
        "group": "last-30-days",
        "lat": 51.44665500456832,
        "lon": 24.122915256939137,
        "alt_km": 430.58818205421994,
        "timestamp": "2025-12-02T06:27:51.800235+00:00",
        "meta_object_name": "STARLINK-35639",
        "meta_object_id": "2025-257C",
        "meta_epoch": "2025-12-01T20:00:01.999008",
        "meta_mean_motion": 15.44563818,
        "meta_eccentricity": 0.0001318,
        "meta_inclination": 53.1589,
        "meta_ra_of_asc_node": 316.0102,
        "meta_arg_of_pericenter": 85.2304,
        "meta_mean_anomaly": 88.4329,
        "meta_ephemeris_type": 0,
        "meta_classification_type": "U",
        "meta_norad_cat_id": 66382,
        "meta_element_set_no": 999,
        "meta_rev_at_epoch": 474,
        "meta_bstar": -0.04819,
        "meta_mean_motion_dot": -0.0202542,
        "meta_mean_motion_ddot": 0,
        "tle_line1": "1 66382U 25257C   25335.83335647 -.02025420  00000+0 -48190-1 0  9992",
        "tle_line2": "2 66382  53.1589 316.0102 0001318  85.2304  88.4329 15.44563818  4740"
      },
      "geometry": {
        "type": "Point",
        "coordinates": [
          24.122915256939137,
          51.44665500456832
        ]
      }
    }
  ]
}